[
  {"id":"1","district":"เขตพระนคร","other":"","postalCode":"10200","province":"กรุงเทพ","subDistrict":"พระบรมมหาราชวัง"},
  {"id":"2","district":"เขตพระนคร","other":"","postalCode":"10200","province":"กรุงเทพ","subDistrict":"วังบูรพาภิรมย์"},
  {"id":"3","district":"เขตพระนคร","other":"","postalCode":"10200","province":"กรุงเทพ","subDistrict":"วัดราชบพิธ"},
  {"id":"4","district":"เขตพระนคร","other":"","postalCode":"10200","province":"กรุงเทพ","subDistrict":"สำราญราษฎร์"},
  {"id":"5","district":"เขตพระนคร","other":"","postalCode":"10200","province":"กรุงเทพ","subDistrict":"ศาลเจ้าพ่อเสือ"},
  {"id":"6","district":"เขตพระนคร","other":"","postalCode":"10200","province":"กรุงเทพ","subDistrict":"เสาชิงช้า"},
  {"id":"7","district":"เขตพระนคร","other":"","postalCode":"10200","province":"กรุงเทพ","subDistrict":"บวรนิเวศ"},
  {"id":"8","district":"เขตพระนคร","other":"","postalCode":"10200","province":"กรุงเทพ","subDistrict":"ตลาดยอด"},
  {"id":"9","district":"เขตพระนคร","other":"","postalCode":"10200","province":"กรุงเทพ","subDistrict":"ชนะสงคราม"},
  {"id":"10","district":"เขตพระนคร","other":"","postalCode":"10200","province":"กรุงเทพ","subDistrict":"บ้านพานถม"},
  {"id":"11","district":"เขตพระนคร","other":"","postalCode":"10200","province":"กรุงเทพ","subDistrict":"บางขุนพรหม"},
  {"id":"12","district":"เขตพระนคร","other":"","postalCode":"10200","province":"กรุงเทพ","subDistrict":"วัดสามพระยา"},
  {"id":"13","district":"เขตดุสิต","other":"","postalCode":"10300","province":"กรุงเทพ","subDistrict":"ดุสิต"},
  {"id":"14","district":"เขตดุสิต","other":"","postalCode":"10300","province":"กรุงเทพ","subDistrict":"วชิรพยาบาล"},
  {"id":"15","district":"เขตดุสิต","other":"","postalCode":"10300","province":"กรุงเทพ","subDistrict":"สวนจิตรลดา"},
  {"id":"16","district":"เขตดุสิต","other":"","postalCode":"10300","province":"กรุงเทพ","subDistrict":"สี่แยกมหานาค"},
  {"id":"17","district":"เขตดุสิต","other":"","postalCode":"10300","province":"กรุงเทพ","subDistrict":"ถนนนครไชยศรี"},
  {"id":"18","district":"เขตหนองจอก","other":"","postalCode":"10530","province":"กรุงเทพ","subDistrict":"กระทุ่มราย"},
  {"id":"19","district":"เขตหนองจอก","other":"","postalCode":"10530","province":"กรุงเทพ","subDistrict":"หนองจอก"},
  {"id":"20","district":"เขตหนองจอก","other":"","postalCode":"10530","province":"กรุงเทพ","subDistrict":"คลองสิบ"},
  {"id":"21","district":"เขตหนองจอก","other":"","postalCode":"10530","province":"กรุงเทพ","subDistrict":"คลองสิบสอง"},
  {"id":"22","district":"เขตหนองจอก","other":"","postalCode":"10530","province":"กรุงเทพ","subDistrict":"โคกแฝด"},
  {"id":"23","district":"เขตหนองจอก","other":"","postalCode":"10530","province":"กรุงเทพ","subDistrict":"คู้ฝั่งเหนือ"},
  {"id":"24","district":"เขตหนองจอก","other":"","postalCode":"10530","province":"กรุงเทพ","subDistrict":"ลำผักชี"},
  {"id":"25","district":"เขตหนองจอก","other":"","postalCode":"10530","province":"กรุงเทพ","subDistrict":"ลำต้อยติ่ง"},
  {"id":"26","district":"เขตบางรัก","other":"","postalCode":"10500","province":"กรุงเทพ","subDistrict":"มหาพฤฒาราม"},
  {"id":"27","district":"เขตบางรัก","other":"","postalCode":"10500","province":"กรุงเทพ","subDistrict":"สีลม"},
  {"id":"28","district":"เขตบางรัก","other":"","postalCode":"10500","province":"กรุงเทพ","subDistrict":"สุริยวงศ์"},
  {"id":"29","district":"เขตบางรัก","other":"","postalCode":"10500","province":"กรุงเทพ","subDistrict":"บางรัก"},
  {"id":"30","district":"เขตบางรัก","other":"","postalCode":"10500","province":"กรุงเทพ","subDistrict":"สี่พระยา"},
  {"id":"31","district":"เขตบางเขน","other":"","postalCode":"10220","province":"กรุงเทพ","subDistrict":"อนุสาวรีย์"},
  {"id":"32","district":"เขตบางเขน","other":"","postalCode":"10220","province":"กรุงเทพ","subDistrict":"ท่าแร้ง"},
  {"id":"33","district":"เขตบางกะปิ","other":"","postalCode":"10240","province":"กรุงเทพ","subDistrict":"คลองจั่น"},
  {"id":"34","district":"เขตบางกะปิ","other":"","postalCode":"10240","province":"กรุงเทพ","subDistrict":"หัวหมาก"},
  {"id":"35","district":"เขตปทุมวัน","other":"","postalCode":"10330","province":"กรุงเทพ","subDistrict":"รองเมือง"},
  {"id":"36","district":"เขตปทุมวัน","other":"","postalCode":"10330","province":"กรุงเทพ","subDistrict":"วังใหม่"},
  {"id":"37","district":"เขตปทุมวัน","other":"","postalCode":"10330","province":"กรุงเทพ","subDistrict":"ปทุมวัน"},
  {"id":"38","district":"เขตปทุมวัน","other":"","postalCode":"10330","province":"กรุงเทพ","subDistrict":"ลุมพินี"},
  {"id":"39","district":"เขตป้อมปราบศัตรูพ่าย","other":"","postalCode":"10100","province":"กรุงเทพ","subDistrict":"ป้อมปราบ"},
  {"id":"40","district":"เขตป้อมปราบศัตรูพ่าย","other":"","postalCode":"10100","province":"กรุงเทพ","subDistrict":"วัดเทพศิรินทร์"},
  {"id":"41","district":"เขตป้อมปราบศัตรูพ่าย","other":"","postalCode":"10100","province":"กรุงเทพ","subDistrict":"คลองมหานาค"},
  {"id":"42","district":"เขตป้อมปราบศัตรูพ่าย","other":"","postalCode":"10100","province":"กรุงเทพ","subDistrict":"บ้านบาตร"},
  {"id":"43","district":"เขตป้อมปราบศัตรูพ่าย","other":"","postalCode":"10100","province":"กรุงเทพ","subDistrict":"วัดโสมนัส"},
  {"id":"44","district":"เขตพระโขนง","other":"","postalCode":"10260","province":"กรุงเทพ","subDistrict":"บางจาก"},
  {"id":"45","district":"เขตพระโขนง","other":"","postalCode":"10260","province":"กรุงเทพ","subDistrict":"พระโขนงใต้"},
  {"id":"46","district":"เขตมีนบุรี","other":"","postalCode":"10510","province":"กรุงเทพ","subDistrict":"มีนบุรี"},
  {"id":"47","district":"เขตมีนบุรี","other":"","postalCode":"10510","province":"กรุงเทพ","subDistrict":"แสนแสบ"},
  {"id":"48","district":"เขตลาดกระบัง","other":"","postalCode":"10520","province":"กรุงเทพ","subDistrict":"ลาดกระบัง"},
  {"id":"49","district":"เขตลาดกระบัง","other":"","postalCode":"10520","province":"กรุงเทพ","subDistrict":"คลองสองต้นนุ่น"},
  {"id":"50","district":"เขตลาดกระบัง","other":"","postalCode":"10520","province":"กรุงเทพ","subDistrict":"คลองสามประเวศ"},
  {"id":"51","district":"เขตลาดกระบัง","other":"","postalCode":"10520","province":"กรุงเทพ","subDistrict":"ลำปลาทิว"},
  {"id":"52","district":"เขตลาดกระบัง","other":"","postalCode":"10520","province":"กรุงเทพ","subDistrict":"ทับยาว"},
  {"id":"53","district":"เขตลาดกระบัง","other":"","postalCode":"10520","province":"กรุงเทพ","subDistrict":"ขุมทอง"},
  {"id":"54","district":"เขตยานนาวา","other":"","postalCode":"10120","province":"กรุงเทพ","subDistrict":"ช่องนนทรี"},
  {"id":"55","district":"เขตยานนาวา","other":"","postalCode":"10120","province":"กรุงเทพ","subDistrict":"บางโพงพาง"},
  {"id":"56","district":"เขตสัมพันธวงศ์","other":"","postalCode":"10100","province":"กรุงเทพ","subDistrict":"จักรวรรดิ"},
  {"id":"57","district":"เขตสัมพันธวงศ์","other":"","postalCode":"10100","province":"กรุงเทพ","subDistrict":"พระบรมมหาราชวัง"},
  {"id":"58","district":"เขตสัมพันธวงศ์","other":"","postalCode":"10100","province":"กรุงเทพ","subDistrict":"วังบูรพาภิรมย์"}
]